{
  "type": "FeatureCollection",
  "features": [
    {
      "type": "Feature",
      "properties": {
        "norad_id": 67012,
        "name": "STARLINK-36175",
        "group": "last-30-days",
        "lat": 57.84626614538693,
        "lon": 65.60963058163061,
        "alt_km": 357.1542531897003,
        "timestamp": "2025-12-27T13:34:48.009482+00:00",
        "meta_object_name": "STARLINK-36175",
        "meta_object_id": "2025-293K",
        "meta_epoch": "2025-12-27T06:00:02.000160",
        "meta_mean_motion": 15.70317242,
        "meta_eccentricity": 0.00034787,
        "meta_inclination": 69.9982,
        "meta_ra_of_asc_node": 281.9115,
        "meta_arg_of_pericenter": 273.5791,
        "meta_mean_anomaly": 217.9612,
        "meta_ephemeris_type": 0,
        "meta_classification_type": "U",
        "meta_norad_cat_id": 67012,
        "meta_element_set_no": 999,
        "meta_rev_at_epoch": 244,
        "meta_bstar": -0.014987463,
        "meta_mean_motion_dot": -0.01626975,
        "meta_mean_motion_ddot": 0,
        "tle_line1": "1 67012U 25293K   25361.25002315 -.01626975  00000+0 -14987-1 0  9999",
        "tle_line2": "2 67012  69.9982 281.9115 0003478 273.5791 217.9612 15.70317242  2444"
      },
      "geometry": {
        "type": "Point",
        "coordinates": [
          65.60963058163061,
          57.84626614538693
        ]
      }
    },
    {
      "type": "Feature",
      "properties": {
        "norad_id": 67013,
        "name": "STARLINK-35856",
        "group": "last-30-days",
        "lat": 56.04858892961746,
        "lon": 68.26634521373181,
        "alt_km": 357.32713360047364,
        "timestamp": "2025-12-27T13:34:48.009493+00:00",
        "meta_object_name": "STARLINK-35856",
        "meta_object_id": "2025-293L",
        "meta_epoch": "2025-12-27T06:00:02.000160",
        "meta_mean_motion": 15.70287672,
        "meta_eccentricity": 0.00032849,
        "meta_inclination": 69.9981,
        "meta_ra_of_asc_node": 281.9084,
        "meta_arg_of_pericenter": 275.9589,
        "meta_mean_anomaly": 217.9168,
        "meta_ephemeris_type": 0,
        "meta_classification_type": "U",
        "meta_norad_cat_id": 67013,
        "meta_element_set_no": 999,
        "meta_rev_at_epoch": 244,
        "meta_bstar": -0.014939845,
        "meta_mean_motion_dot": -0.01620438,
        "meta_mean_motion_ddot": 0,
        "tle_line1": "1 67013U 25293L   25361.25002315 -.01620438  00000+0 -14940-1 0  9997",
        "tle_line2": "2 67013  69.9981 281.9084 0003284 275.9589 217.9168 15.70287672  2444"
      },
      "geometry": {
        "type": "Point",
        "coordinates": [
          68.26634521373181,
          56.04858892961746
        ]
      }
    },
    {
      "type": "Feature",
      "properties": {
        "norad_id": 67014,
        "name": "STARLINK-36207",
        "group": "last-30-days",
        "lat": 54.26729488438872,
        "lon": 70.60037802660634,
        "alt_km": 357.5760729247604,
        "timestamp": "2025-12-27T13:34:48.009505+00:00",
        "meta_object_name": "STARLINK-36207",
        "meta_object_id": "2025-293M",
        "meta_epoch": "2025-12-27T06:00:02.000160",
        "meta_mean_motion": 15.70273531,
        "meta_eccentricity": 0.00033662,
        "meta_inclination": 69.9983,
        "meta_ra_of_asc_node": 281.9068,
        "meta_arg_of_pericenter": 273.16,
        "meta_mean_anomaly": 222.9591,
        "meta_ephemeris_type": 0,
        "meta_classification_type": "U",
        "meta_norad_cat_id": 67014,
        "meta_element_set_no": 999,
        "meta_rev_at_epoch": 250,
        "meta_bstar": -0.015003204,
        "meta_mean_motion_dot": -0.01625751,
        "meta_mean_motion_ddot": 0,
        "tle_line1": "1 67014U 25293M   25361.25002315 -.01625751  00000+0 -15003-1 0  9992",
        "tle_line2": "2 67014  69.9983 281.9068 0003366 273.1600 222.9591 15.70273531  2506"
      },
      "geometry": {
        "type": "Point",
        "coordinates": [
          70.60037802660634,
          54.26729488438872
        ]
      }
    },
    {
      "type": "Feature",
      "properties": {
        "norad_id": 67015,
        "name": "STARLINK-36093",
        "group": "last-30-days",
        "lat": 50.61327372307833,
        "lon": 74.67429560320974,
        "alt_km": 358.0655423856433,
        "timestamp": "2025-12-27T13:34:48.009517+00:00",
        "meta_object_name": "STARLINK-36093",
        "meta_object_id": "2025-293N",
        "meta_epoch": "2025-12-27T06:00:02.000160",
        "meta_mean_motion": 15.70236813,
        "meta_eccentricity": 0.00033591,
        "meta_inclination": 69.9981,
        "meta_ra_of_asc_node": 281.9005,
        "meta_arg_of_pericenter": 272.4109,
        "meta_mean_anomaly": 228.163,
        "meta_ephemeris_type": 0,
        "meta_classification_type": "U",
        "meta_norad_cat_id": 67015,
        "meta_element_set_no": 999,
        "meta_rev_at_epoch": 244,
        "meta_bstar": -0.015003065,
        "meta_mean_motion_dot": -0.01623509,
        "meta_mean_motion_ddot": 0,
        "tle_line1": "1 67015U 25293N   25361.25002315 -.01623509  00000+0 -15003-1 0  9992",
        "tle_line2": "2 67015  69.9981 281.9005 0003359 272.4109 228.1630 15.70236813  2441"
      },
      "geometry": {
        "type": "Point",
        "coordinates": [
          74.67429560320974,
          50.61327372307833
        ]
      }
    },
    {
      "type": "Feature",
      "properties": {
        "norad_id": 67016,
        "name": "STARLINK-36120",
        "group": "last-30-days",
        "lat": 52.51537045943273,
        "lon": 72.6579418477086,
        "alt_km": 357.787903676669,
        "timestamp": "2025-12-27T13:34:48.009527+00:00",
        "meta_object_name": "STARLINK-36120",
        "meta_object_id": "2025-293P",
        "meta_epoch": "2025-12-27T06:00:02.000160",
        "meta_mean_motion": 15.7026061,
        "meta_eccentricity": 0.00033582,
        "meta_inclination": 69.9984,
        "meta_ra_of_asc_node": 281.9035,
        "meta_arg_of_pericenter": 272.4509,
        "meta_mean_anomaly": 225.8208,
        "meta_ephemeris_type": 0,
        "meta_classification_type": "U",
        "meta_norad_cat_id": 67016,
        "meta_element_set_no": 999,
        "meta_rev_at_epoch": 244,
        "meta_bstar": -0.015014254,
        "meta_mean_motion_dot": -0.01626025,
        "meta_mean_motion_ddot": 0,
        "tle_line1": "1 67016U 25293P   25361.25002315 -.01626025  00000+0 -15014-1 0  9991",
        "tle_line2": "2 67016  69.9984 281.9035 0003358 272.4509 225.8208 15.70260610  2448"
      },
      "geometry": {
        "type": "Point",
        "coordinates": [
          72.6579418477086,
          52.51537045943273
        ]
      }
    },
    {
      "type": "Feature",
      "properties": {
        "norad_id": 67017,
        "name": "STARLINK-35498",
        "group": "last-30-days",
        "lat": 48.74839963280784,
        "lon": 76.46819297813175,
        "alt_km": 358.40998414651494,
        "timestamp": "2025-12-27T13:34:48.009537+00:00",
        "meta_object_name": "STARLINK-35498",
        "meta_object_id": "2025-293Q",
        "meta_epoch": "2025-12-27T06:00:02.000160",
        "meta_mean_motion": 15.70222034,
        "meta_eccentricity": 0.00034707,
        "meta_inclination": 69.9976,
        "meta_ra_of_asc_node": 281.8974,
        "meta_arg_of_pericenter": 273.2001,
        "meta_mean_anomaly": 229.5868,
        "meta_ephemeris_type": 0,
        "meta_classification_type": "U",
        "meta_norad_cat_id": 67017,
        "meta_element_set_no": 999,
        "meta_rev_at_epoch": 263,
        "meta_bstar": -0.015032146,
        "meta_mean_motion_dot": -0.01625501,
        "meta_mean_motion_ddot": 0,
        "tle_line1": "1 67017U 25293Q   25361.25002315 -.01625501  00000+0 -15032-1 0  9990",
        "tle_line2": "2 67017  69.9976 281.8974 0003470 273.2001 229.5868 15.70222034  2634"
      },
      "geometry": {
        "type": "Point",
        "coordinates": [
          76.46819297813175,
          48.74839963280784
        ]
      }
    },
    {
      "type": "Feature",
      "properties": {
        "norad_id": 67018,
        "name": "STARLINK-36106",
        "group": "last-30-days",
        "lat": 46.850176658871,
        "lon": 78.1400193149762,
        "alt_km": 358.7147029781627,
        "timestamp": "2025-12-27T13:34:48.009549+00:00",
        "meta_object_name": "STARLINK-36106",
        "meta_object_id": "2025-293R",
        "meta_epoch": "2025-12-27T06:00:02.000160",
        "meta_mean_motion": 15.70207953,
        "meta_eccentricity": 0.00035069,
        "meta_inclination": 69.9977,
        "meta_ra_of_asc_node": 281.8946,
        "meta_arg_of_pericenter": 273.5423,
        "meta_mean_anomaly": 231.467,
        "meta_ephemeris_type": 0,
        "meta_classification_type": "U",
        "meta_norad_cat_id": 67018,
        "meta_element_set_no": 999,
        "meta_rev_at_epoch": 255,
        "meta_bstar": -0.01509517,
        "meta_mean_motion_dot": -0.01630727,
        "meta_mean_motion_ddot": 0,
        "tle_line1": "1 67018U 25293R   25361.25002315 -.01630727  00000+0 -15095-1 0  9996",
        "tle_line2": "2 67018  69.9977 281.8946 0003506 273.5423 231.4670 15.70207953  2553"
      },
      "geometry": {
        "type": "Point",
        "coordinates": [
          78.1400193149762,
          46.850176658871
        ]
      }
    }
  ]
}